{"type":"FeatureCollection","name":"coastline-mediterranean","crs":{"type":"name","properties":{"name":"urn:ogc:def:crs:OGC:1.3:CRS84"}},"bbox":[20,33,28,38],"features":[{"type":"Feature","properties":{"featurecla":"Coastline","scalerank":0,"min_zoom":0},"geometry":{"type":"MultiLineString","coordinates":[[[27.111023909232955,38],[27.111176,37.999701],[27.116384,37.994086],[27.141124,37.986029],[27.177501,37.980943],[27.214041,37.980943],[27.239106,37.987942],[27.266287,37.951361],[27.27475,37.929023],[27.260427,37.919013],[27.264659,37.909817],[27.265391,37.901679],[27.263438,37.8935],[27.260427,37.884223],[27.255544,37.877102],[27.242524,37.868069],[27.239106,37.864407],[27.237153,37.845445],[27.243337,37.833808],[27.252696,37.825263],[27.260427,37.815985],[27.261567,37.803534],[27.260509,37.781968],[27.256602,37.759508],[27.249522,37.74433],[27.22641,37.720933],[27.213145,37.713446],[27.127208,37.688544],[27.105479,37.686265],[27.038341,37.690131],[27.020763,37.686265],[27.011485,37.665717],[27.048839,37.650133],[27.136241,37.631049],[27.193858,37.60102],[27.208507,37.596869],[27.212169,37.585598],[27.209321,37.5633],[27.200369,37.547553],[27.184581,37.555894],[27.180431,37.544582],[27.184255,37.538764],[27.188243,37.534491],[27.184581,37.528022],[27.19044,37.512681],[27.187836,37.498277],[27.181895,37.483344],[27.177745,37.466539],[27.185313,37.474107],[27.192638,37.478664],[27.199392,37.478583],[27.205089,37.472724],[27.222504,37.476752],[27.217459,37.431301],[27.226248,37.411933],[27.226248,37.405097],[27.220388,37.403998],[27.205089,37.398261],[27.209483,37.386949],[27.20753,37.37641],[27.200694,37.366523],[27.190766,37.357327],[27.198578,37.354193],[27.201345,37.352281],[27.204112,37.352932],[27.211925,37.357327],[27.215587,37.354153],[27.217052,37.350979],[27.218761,37.343695],[27.224946,37.348212],[27.2317,37.34809],[27.23878,37.343899],[27.246104,37.336168],[27.25766,37.34455],[27.271495,37.348578],[27.330333,37.35163],[27.336436,37.355699],[27.321788,37.363511],[27.321788,37.370917],[27.346202,37.370592],[27.356456,37.379136],[27.361176,37.392157],[27.370291,37.405097],[27.386567,37.412055],[27.403494,37.412584],[27.407237,37.412746],[27.426524,37.405951],[27.438487,37.390815],[27.415212,37.381659],[27.396739,37.365627],[27.388682,37.345282],[27.396821,37.323147],[27.418305,37.309475],[27.446137,37.305609],[27.468516,37.315619],[27.472667,37.343695],[27.480154,37.343695],[27.491384,37.327338],[27.490001,37.313788],[27.485118,37.303046],[27.486339,37.295233],[27.467947,37.277004],[27.461436,37.267524],[27.458832,37.258002],[27.463634,37.252021],[27.473643,37.256415],[27.483165,37.264106],[27.486339,37.26789],[27.5088,37.268052],[27.519867,37.259101],[27.517751,37.245998],[27.500011,37.233832],[27.514659,37.229315],[27.530528,37.236314],[27.543224,37.249823],[27.54835,37.264838],[27.553233,37.272935],[27.564789,37.275539],[27.589366,37.274726],[27.591563,37.277004],[27.592052,37.281073],[27.594412,37.28384],[27.603038,37.282172],[27.60377,37.28148],[27.615977,37.274726],[27.614024,37.267524],[27.612804,37.254625],[27.609874,37.247463],[27.604259,37.242255],[27.591645,37.235053],[27.589366,37.230699],[27.588552,37.211127],[27.594249,37.204291],[27.609874,37.199652],[27.594737,37.18594],[27.586681,37.181464],[27.575531,37.178534],[27.587657,37.198798],[27.574718,37.201158],[27.527843,37.192816],[27.527843,37.18537],[27.539561,37.17829],[27.547211,37.161811],[27.554535,37.130113],[27.559093,37.134345],[27.562348,37.13581],[27.575531,37.1376],[27.575531,37.130113],[27.565115,37.125637],[27.541515,37.125963],[27.531016,37.120836],[27.522227,37.114976],[27.501313,37.107489],[27.475108,37.092515],[27.459809,37.089504],[27.445567,37.096991],[27.431,37.117743],[27.43336,37.119696],[27.434906,37.120347],[27.436209,37.121243],[27.438487,37.123969],[27.425466,37.119615],[27.418224,37.121243],[27.412446,37.125678],[27.404307,37.130113],[27.393809,37.130805],[27.386567,37.130072],[27.382986,37.134711],[27.383311,37.151842],[27.381114,37.149482],[27.380544,37.148098],[27.379405,37.146674],[27.376475,37.144436],[27.369314,37.150702],[27.361583,37.148627],[27.354259,37.140855],[27.348969,37.130113],[27.342296,37.130113],[27.343028,37.141791],[27.33961,37.150539],[27.33253,37.156195],[27.321788,37.158677],[27.324718,37.147854],[27.323497,37.138861],[27.3213,37.13109],[27.321788,37.123969],[27.302989,37.119574],[27.271658,37.128852],[27.260427,37.117743],[27.25294,37.123969],[27.254893,37.116523],[27.256602,37.113674],[27.260427,37.110297],[27.27003,37.116034],[27.279063,37.11758],[27.287446,37.115424],[27.294444,37.110297],[27.281912,37.098334],[27.264171,37.089016],[27.247732,37.083441],[27.239106,37.082953],[27.22877,37.061835],[27.232432,37.047309],[27.241222,37.034369],[27.246104,37.017768],[27.247406,37.00023],[27.252696,36.978339],[27.263194,36.963365],[27.280935,36.966864],[27.286957,36.959418],[27.293956,36.961615],[27.299001,36.961493],[27.308116,36.959418],[27.305431,36.963284],[27.300629,36.97309],[27.314626,36.977118],[27.326508,36.985989],[27.332693,36.997056],[27.328624,37.00788],[27.328624,37.014106],[27.340994,37.018459],[27.367442,37.022773],[27.376475,37.027737],[27.379893,37.020901],[27.381684,37.018948],[27.38087,37.017971],[27.376475,37.014106],[27.37794,37.010199],[27.379893,37.009182],[27.381847,37.008979],[27.383311,37.00788],[27.380626,37.002427],[27.378917,37.000718],[27.379405,36.998969],[27.383311,36.993598],[27.394786,37.018297],[27.396821,37.027737],[27.404307,37.027737],[27.402354,37.023871],[27.408051,37.016832],[27.423513,37.027167],[27.438487,37.027737],[27.444835,37.022528],[27.462738,37.001125],[27.472667,36.993598],[27.483735,36.99079],[27.514171,36.993598],[27.528331,36.991278],[27.538748,36.986721],[27.562022,36.97309],[27.567149,36.996649],[27.590343,36.998277],[27.618012,36.989244],[27.636485,36.980536],[27.655772,36.996527],[27.687673,37.005439],[27.719737,37.005194],[27.739513,36.993598],[27.751231,36.996894],[27.762869,36.997301],[27.77296,36.995836],[27.780447,36.993598],[27.786388,37.003567],[27.787852,37.00788],[27.794119,37.00788],[27.804698,37.004584],[27.886241,37.02619],[27.911388,37.027737],[27.940929,37.022203],[27.951834,37.02147],[27.963145,37.023586],[27.975597,37.032294],[27.986583,37.035142],[28,37.03341233673047]],[[28,36.79695208002201],[27.994151,36.798407],[27.959239,36.794989],[27.939952,36.79564],[27.919688,36.799709],[27.903656,36.805813],[27.897146,36.812323],[27.886485,36.808824],[27.799083,36.806627],[27.785655,36.801093],[27.76002,36.781317],[27.74822,36.78441],[27.735199,36.782416],[27.721202,36.781684],[27.705414,36.788764],[27.691173,36.784329],[27.645356,36.806464],[27.623383,36.801744],[27.617849,36.789618],[27.616954,36.77619],[27.611501,36.765326],[27.592459,36.76081],[27.556651,36.762681],[27.483165,36.753974],[27.458832,36.755683],[27.449555,36.753974],[27.438487,36.747138],[27.427257,36.735663],[27.423106,36.719672],[27.414317,36.709296],[27.401622,36.704739],[27.384776,36.705024],[27.368337,36.708238],[27.355805,36.712388],[27.355805,36.706204],[27.364024,36.702582],[27.368663,36.697414],[27.368663,36.691352],[27.362804,36.685126],[27.366384,36.684475],[27.369151,36.684475],[27.370616,36.683173],[27.370291,36.6789],[27.382986,36.68476],[27.394054,36.684149],[27.402029,36.677476],[27.404307,36.665229],[27.415782,36.669013],[27.425629,36.668647],[27.448416,36.665229],[27.45574,36.662909],[27.468028,36.652981],[27.472667,36.650946],[27.477712,36.653469],[27.481944,36.658352],[27.486339,36.665229],[27.554535,36.685126],[27.559744,36.674628],[27.570323,36.673814],[27.585134,36.677069],[27.603038,36.6789],[27.619884,36.676459],[27.63795,36.671332],[27.671153,36.657782],[27.673106,36.679633],[27.68686,36.711127],[27.684255,36.719875],[27.684255,36.726711],[27.698497,36.734198],[27.719412,36.756252],[27.736095,36.76081],[27.75172,36.759223],[27.764496,36.756496],[27.776052,36.755927],[27.787852,36.76081],[27.787852,36.753974],[27.806488,36.76081],[27.826182,36.757473],[27.843761,36.748928],[27.856212,36.740383],[27.863048,36.740383],[27.870372,36.75259],[27.876801,36.7508],[27.883149,36.743842],[27.89031,36.740383],[27.897716,36.745347],[27.905447,36.752875],[27.912446,36.754136],[27.917654,36.740383],[27.932302,36.746568],[27.944672,36.756252],[27.954112,36.759589],[27.959239,36.747138],[27.966075,36.747138],[27.980724,36.753811],[28,36.758418726020366]],[[28,36.69802989504846],[27.971202,36.692532],[27.966075,36.688788],[27.970225,36.679836],[27.980154,36.675849],[27.991466,36.675849],[28,36.6788393794648]],[[28,36.602525],[27.959239,36.602525],[27.96461,36.595649],[27.967621,36.592597],[27.972911,36.589504],[27.970876,36.586412],[27.968028,36.578925],[27.966075,36.575873],[27.977712,36.565741],[27.990896,36.55976],[28,36.56129621538702]]]}},{"type":"Feature","properties":{"featurecla":"Coastline","scalerank":0,"min_zoom":0},"geometry":{"type":"MultiLineString","coordinates":[[[24.030489517063746,38],[24.03004,37.99844],[24.016612,37.976955],[24.011729,37.966864],[24.011892,37.958319],[24.014496,37.948472],[24.01588,37.937445],[24.011729,37.925238],[24.022797,37.925727],[24.034434,37.922919],[24.043305,37.916449],[24.046397,37.905992],[24.042247,37.900702],[24.011729,37.89175],[24.018891,37.885159],[24.027843,37.880316],[24.03891,37.877875],[24.053233,37.878079],[24.046397,37.870592],[24.051931,37.869696],[24.066905,37.864407],[24.060802,37.855618],[24.059337,37.848538],[24.061778,37.842515],[24.066905,37.837104],[24.061778,37.834703],[24.057628,37.83218],[24.054942,37.828518],[24.053233,37.822821],[24.076996,37.811103],[24.084646,37.801744],[24.087413,37.785224],[24.086192,37.763739],[24.081879,37.752509],[24.059418,37.733466],[24.07309,37.72724],[24.07309,37.719794],[24.059418,37.719794],[24.059418,37.713568],[24.065766,37.712795],[24.066742,37.709703],[24.065766,37.705024],[24.066905,37.699286],[24.065684,37.70189],[24.065278,37.70482],[24.063975,37.705024],[24.059418,37.699286],[24.072113,37.689521],[24.063731,37.678453],[24.046397,37.665839],[24.032725,37.651516],[24.021332,37.657782],[23.983084,37.670315],[23.967296,37.672593],[23.949718,37.677436],[23.943044,37.689927],[23.94337,37.72724],[23.936534,37.72724],[23.922699,37.721177],[23.913341,37.739691],[23.902517,37.781887],[23.898692,37.779283],[23.888845,37.7744],[23.881602,37.791083],[23.865571,37.807685],[23.847504,37.818101],[23.833507,37.815985],[23.829112,37.819403],[23.825369,37.821357],[23.822113,37.824164],[23.819184,37.829657],[23.812999,37.829657],[23.807302,37.80858],[23.797211,37.808498],[23.786632,37.812161],[23.778982,37.802314],[23.777354,37.809068],[23.776622,37.814276],[23.773611,37.816881],[23.764496,37.815985],[23.770844,37.828315],[23.766449,37.838935],[23.744802,37.857611],[23.742198,37.876654],[23.700531,37.925198],[23.697032,37.939521],[23.680186,37.945868],[23.663341,37.942939],[23.646007,37.936672],[23.628103,37.932685],[23.627696,37.937649],[23.628103,37.939521],[23.637706,37.942939],[23.640798,37.945787],[23.641775,37.952541],[23.626638,37.947496],[23.618012,37.953274],[23.610362,37.962144],[23.597667,37.966864],[23.583344,37.967108],[23.571056,37.968695],[23.560802,37.972805],[23.552989,37.980455],[23.580094008114685,38]],[[23.419798912672306,38],[23.411876,37.994371],[23.395274,37.987942],[23.429454,37.980455],[23.408946,37.974311],[23.329845,37.980455],[23.226817,37.973619],[23.18922,37.958808],[23.159434,37.940538],[23.142345,37.93008],[23.094086,37.911038],[23.052013,37.925238],[23.042735,37.921942],[23.034841,37.922309],[23.026134,37.92414],[23.015147,37.925238],[23.011485,37.919989],[23.011729,37.908515],[23.010265,37.896959],[23.001475,37.89175],[22.995128,37.882148],[22.999522,37.862698],[23.012543,37.847561],[23.032237,37.850775],[23.049653,37.843573],[23.073497,37.841132],[23.097179,37.843573],[23.114106,37.850775],[23.146251,37.825832],[23.163829,37.815253],[23.182384,37.809149],[23.177989,37.799302],[23.176443,37.789984],[23.177989,37.781562],[23.182384,37.7744],[23.168712,37.772366],[23.150401,37.763373],[23.128184,37.760484],[23.125011,37.75727],[23.124034,37.750963],[23.120942,37.740912],[23.145844,37.725816],[23.159353,37.720771],[23.175548,37.719794],[23.16627,37.697008],[23.163829,37.681586],[23.167247,37.666449],[23.175548,37.64468],[23.161876,37.64468],[23.164561,37.623033],[23.16863,37.614163],[23.190115,37.607327],[23.230235,37.582587],[23.237641,37.590033],[23.274669,37.561225],[23.279063,37.559963],[23.28419,37.559231],[23.292247,37.555894],[23.312348,37.542548],[23.323009,37.537421],[23.336681,37.535468],[23.360362,37.547675],[23.359141,37.574286],[23.340587,37.600287],[23.312185,37.610541],[23.312185,37.617377],[23.329112,37.628241],[23.34783,37.634426],[23.398692,37.637885],[23.409028,37.625922],[23.404307,37.59927],[23.390798,37.571357],[23.374278,37.555894],[23.384288,37.547431],[23.39503,37.541409],[23.4074,37.537502],[23.422048,37.535468],[23.422048,37.528022],[23.40268,37.522528],[23.395274,37.521796],[23.395274,37.51496],[23.40211,37.51496],[23.410655,37.511908],[23.43629,37.508124],[23.458832,37.496161],[23.479177,37.490668],[23.525645,37.459703],[23.520518,37.455064],[23.518891,37.45303],[23.520681,37.450873],[23.525645,37.446031],[23.525645,37.439195],[23.505382,37.430487],[23.446544,37.414618],[23.441824,37.414415],[23.323253,37.409735],[23.305919,37.411933],[23.307384,37.408393],[23.308116,37.40526],[23.309418,37.402045],[23.312185,37.398261],[23.276052,37.402248],[23.262706,37.401028],[23.264415,37.390815],[23.230235,37.384589],[23.229991,37.374945],[23.237071,37.370307],[23.247406,37.369452],[23.257579,37.370917],[23.251313,37.363511],[23.251313,37.357327],[23.258962,37.356391],[23.278005,37.34984],[23.26238,37.34398],[23.243988,37.342434],[23.206716,37.343695],[23.186046,37.340644],[23.185395,37.33218],[23.194509,37.319241],[23.203624,37.30268],[23.182872,37.299262],[23.16863,37.299506],[23.156261,37.303127],[23.141449,37.309516],[23.141449,37.316352],[23.161876,37.316352],[23.161876,37.323147],[23.150157,37.325751],[23.136241,37.323717],[23.123383,37.324774],[23.114106,37.336168],[23.134613,37.329332],[23.129731,37.338772],[23.122406,37.345689],[23.100597,37.357327],[23.092784,37.350775],[23.082774,37.350531],[23.07309,37.355211],[23.07309,37.357327],[23.070079,37.388902],[23.072602,37.401109],[23.083751,37.394517],[23.094981,37.389553],[23.105235,37.396918],[23.112559,37.410875],[23.114106,37.425605],[23.135997,37.415473],[23.141449,37.411933],[23.141449,37.418158],[23.136567,37.427314],[23.135102,37.433498],[23.134613,37.442613],[23.132009,37.448635],[23.125499,37.451117],[23.117931,37.452826],[23.111339,37.45661],[23.097179,37.462226],[23.062022,37.454983],[23.045909,37.459703],[23.059418,37.466539],[23.045909,37.487006],[23.021007,37.475287],[23.011241,37.469062],[23.004893,37.459703],[22.990896,37.495754],[22.980724,37.508775],[22.963878,37.521796],[22.959239,37.522773],[22.947602,37.521308],[22.942882,37.521796],[22.939138,37.52497],[22.937348,37.529446],[22.936697,37.533515],[22.936046,37.535468],[22.92156,37.540351],[22.912852,37.541815],[22.901866,37.541653],[22.914317,37.538804],[22.918468,37.53559],[22.922374,37.528022],[22.902354,37.534857],[22.88502,37.533149],[22.869395,37.525621],[22.854015,37.51496],[22.847179,37.520982],[22.819347,37.535468],[22.821544,37.53913],[22.826182,37.549058],[22.813487,37.553412],[22.802013,37.560858],[22.795909,37.569159],[22.798839,37.576402],[22.788341,37.588772],[22.778331,37.596869],[22.756521,37.589667],[22.738455,37.580878],[22.72641,37.566352],[22.723155,37.541653],[22.725352,37.536566],[22.73463,37.524563],[22.736664,37.518378],[22.735525,37.511908],[22.730724,37.50023],[22.730479,37.494452],[22.734711,37.483344],[22.739919,37.477484],[22.745372,37.473131],[22.750336,37.466539],[22.751475,37.461615],[22.750336,37.442613],[22.752696,37.439683],[22.764822,37.431789],[22.764171,37.421536],[22.757335,37.408271],[22.757986,37.398261],[22.810395,37.348375],[22.819347,37.343695],[22.812511,37.329332],[22.826182,37.329332],[22.826182,37.323147],[22.819347,37.323147],[22.819347,37.316352],[22.829845,37.308295],[22.85377,37.273871],[22.86085,37.255683],[22.89503,37.206488],[22.898448,37.203681],[22.906586,37.193915],[22.911632,37.183417],[22.905284,37.178534],[22.900401,37.172919],[22.897227,37.159857],[22.89503,37.133857],[22.903168,37.121283],[22.922048,37.117987],[22.942719,37.120103],[22.956391,37.123969],[22.957042,37.11933],[22.958832,37.116523],[22.961192,37.114],[22.963878,37.110297],[22.956798,37.106757],[22.958018,37.10578],[22.963878,37.10342],[22.956391,37.095933],[22.973481,37.090969],[22.9817,37.082709],[22.979177,37.077826],[22.963878,37.082953],[22.972911,37.065131],[22.999848,37.033271],[22.998057,37.02147],[23.006114,37.004584],[23.011729,36.986762],[23.006521,36.987209],[22.99586,36.986477],[22.990733,36.986762],[22.993175,36.981838],[23.000824,36.971177],[23.004893,36.966864],[23.006847,36.97016],[23.007579,36.970852],[23.008474,36.971096],[23.011729,36.97309],[23.014985,36.963853],[23.016368,36.955268],[23.01531,36.947089],[23.011729,36.93891],[23.021739,36.925727],[23.041677,36.885443],[23.049001,36.876899],[23.045909,36.869086],[23.059255,36.851508],[23.086762,36.829088],[23.093272,36.818264],[23.095551,36.807034],[23.091807,36.798326],[23.080577,36.794989],[23.080577,36.788764],[23.091075,36.788275],[23.098806,36.786933],[23.114106,36.781317],[23.109874,36.773668],[23.098399,36.766669],[23.094412,36.76081],[23.092947,36.755194],[23.093028,36.752021],[23.093761,36.748928],[23.094412,36.74372],[23.088634,36.732896],[23.075857,36.733832],[23.061697,36.740546],[23.052013,36.747138],[23.043468,36.736029],[23.030935,36.725572],[23.025645,36.715644],[23.039073,36.706204],[23.036957,36.702867],[23.03419,36.695868],[23.032237,36.692572],[23.059418,36.692572],[23.034434,36.674872],[23.035655,36.649075],[23.050466,36.622463],[23.07016,36.596991],[23.080577,36.579291],[23.084809,36.576158],[23.104666,36.569322],[23.115977,36.562242],[23.134613,36.555365],[23.138845,36.550523],[23.141287,36.5456],[23.145356,36.541938],[23.15504,36.541083],[23.145763,36.535631],[23.141449,36.534247],[23.141449,36.528022],[23.147472,36.522366],[23.148204,36.517157],[23.143891,36.512274],[23.134613,36.507554],[23.151866,36.487291],[23.181814,36.472317],[23.203624,36.456122],[23.196056,36.432522],[23.161876,36.446194],[23.151866,36.435614],[23.139334,36.434068],[23.094737,36.443183],[23.085704,36.453599],[23.07838,36.465277],[23.066254,36.473456],[23.066254,36.479641],[23.072113,36.493109],[23.065115,36.509101],[23.051036,36.522447],[23.035655,36.528022],[22.992686,36.520331],[22.972423,36.520209],[22.963878,36.531155],[22.959239,36.547431],[22.936778,36.586168],[22.92921,36.59634],[22.917817,36.60517],[22.874685,36.63052],[22.888927,36.642483],[22.884288,36.654242],[22.84254,36.685004],[22.837169,36.68651],[22.833181,36.6789],[22.819347,36.665229],[22.814952,36.670559],[22.813731,36.679389],[22.819347,36.702786],[22.817149,36.717963],[22.807872,36.739569],[22.800792,36.775784],[22.786876,36.793443],[22.765147,36.804185],[22.736664,36.80858],[22.685557,36.809475],[22.622569,36.803453],[22.577403,36.783026],[22.579112,36.740383],[22.546153,36.721422],[22.533458,36.707221],[22.525076,36.685126],[22.540294,36.685207],[22.549815,36.67829],[22.553722,36.666205],[22.552501,36.650946],[22.545665,36.650946],[22.543793,36.658026],[22.54005,36.665269],[22.533865,36.670559],[22.525076,36.671454],[22.516775,36.666164],[22.511404,36.656887],[22.51002,36.648017],[22.514496,36.64411],[22.531016,36.632799],[22.526052,36.612372],[22.512706,36.602769],[22.504649,36.624254],[22.490001,36.617011],[22.48406,36.606635],[22.483572,36.547919],[22.486583,36.525092],[22.492686,36.506293],[22.511485,36.46662],[22.507335,36.461086],[22.511485,36.452338],[22.498302,36.445258],[22.493907,36.43476],[22.496755,36.422756],[22.504649,36.411363],[22.504649,36.404527],[22.495453,36.405341],[22.493012,36.402493],[22.492849,36.397284],[22.490977,36.390937],[22.479747,36.402045],[22.476329,36.419257],[22.475108,36.437567],[22.4699,36.452338],[22.455333,36.462226],[22.420421,36.473538],[22.408376,36.487128],[22.401622,36.487128],[22.391368,36.478502],[22.381358,36.480455],[22.371918,36.488227],[22.364024,36.497016],[22.354503,36.511908],[22.355317,36.522935],[22.361501,36.533759],[22.367442,36.547919],[22.383556,36.544176],[22.388194,36.556057],[22.384044,36.572496],[22.373709,36.582709],[22.378673,36.587592],[22.38795,36.602525],[22.367442,36.602525],[22.369314,36.615383],[22.367931,36.630845],[22.371349,36.642727],[22.38795,36.64411],[22.38795,36.650946],[22.368419,36.65648],[22.370616,36.67357],[22.38795,36.706204],[22.358572,36.702094],[22.339366,36.726467],[22.323741,36.75788],[22.305431,36.775092],[22.306977,36.794582],[22.291677,36.820136],[22.221528,36.897528],[22.200206,36.906399],[22.175059,36.891181],[22.148692,36.907172],[22.137869,36.917141],[22.133474,36.932115],[22.135753,36.931627],[22.140636,36.937161],[22.145356,36.946112],[22.147716,36.956041],[22.148774,36.967434],[22.153575,36.986884],[22.155121,37.014106],[22.153168,37.021186],[22.085623,37.033393],[22.048106,37.035142],[22.03004,37.030951],[21.992198,37.012112],[21.9546,37.003648],[21.943126,36.993313],[21.937348,36.979967],[21.927257,36.884467],[21.922211,36.872301],[21.921723,36.863227],[21.925955,36.851711],[21.93214,36.843004],[21.934906,36.834215],[21.928559,36.822252],[21.945649,36.809027],[21.956228,36.803453],[21.970225,36.801744],[21.970225,36.794989],[21.956798,36.794135],[21.945079,36.789944],[21.938813,36.783189],[21.942231,36.775092],[21.935883,36.766018],[21.894298,36.735053],[21.888682,36.729926],[21.882579,36.726549],[21.874034,36.726711],[21.856781,36.755072],[21.853526,36.757392],[21.822765,36.80858],[21.804861,36.807603],[21.789724,36.804755],[21.764171,36.794989],[21.752289,36.804999],[21.72877,36.812649],[21.722504,36.822252],[21.716319,36.822252],[21.707367,36.81802],[21.701915,36.825629],[21.696625,36.838446],[21.688487,36.849555],[21.692393,36.859036],[21.691661,36.867255],[21.68922,36.877021],[21.688487,36.891181],[21.69158,36.900295],[21.704763,36.917141],[21.709483,36.92593],[21.709972,36.942694],[21.702647,36.957261],[21.688162,36.964545],[21.667979,36.959418],[21.677419,36.963284],[21.680431,36.966457],[21.681651,36.97309],[21.672699,36.973578],[21.667735,36.970933],[21.661794,36.959418],[21.654796,36.994696],[21.629242,37.020901],[21.599294,37.045722],[21.578624,37.076728],[21.569672,37.116197],[21.567556,37.156317],[21.574392,37.192369],[21.592133,37.22016],[21.654959,37.260728],[21.682302,37.283922],[21.695811,37.316352],[21.691417,37.356635],[21.681977,37.378974],[21.674815,37.395982],[21.607107,37.499498],[21.569021,37.545356],[21.549978,37.561469],[21.463634,37.610256],[21.443044,37.618598],[21.431814,37.627631],[21.412364,37.648017],[21.402192,37.655422],[21.343272,37.669338],[21.323741,37.664944],[21.318533,37.637885],[21.312266,37.637885],[21.310232,37.647406],[21.310395,37.657416],[21.308279,37.666246],[21.298676,37.672593],[21.311046,37.693101],[21.314708,37.70954],[21.31186,37.726304],[21.295258,37.771674],[21.284923,37.785102],[21.271007,37.793402],[21.227306,37.811916],[21.122081,37.837388],[21.113048,37.843329],[21.107595,37.855455],[21.111583,37.870429],[21.106212,37.878079],[21.133556,37.946357],[21.140391,37.946357],[21.164399,37.929633],[21.207774,37.946031],[21.251638,37.976223],[21.276509664632176,38]],[[21.28111744711538,38],[21.291515,37.997219],[21.29696492169069,38]],[[22.77905079966901,38],[22.796397,37.976793],[22.802257,37.973619],[22.8213,37.969184],[22.852387,37.947496],[22.867198,37.939521],[22.88266,37.937567],[22.898204,37.939765],[22.922374,37.946357],[22.930024,37.946601],[22.938324,37.94595],[22.9463,37.946234],[22.952973,37.949408],[22.973155,37.973619],[22.975352,37.97899],[22.965505,37.990709],[22.95395507706093,38]]]}},{"type":"Feature","properties":{"featurecla":"Coastline","scalerank":6,"min_zoom":6},"geometry":{"type":"LineString","coordinates":[[24.128429,34.855292],[24.128429,34.862738],[24.105154,34.868069],[24.09311,34.869534],[24.080577,34.868964],[24.074392,34.86343],[24.066905,34.858466],[24.057872,34.855414],[24.046397,34.855292],[24.046397,34.849066],[24.086111,34.826321],[24.108572,34.816555],[24.135265,34.815009],[24.135265,34.821763],[24.125743,34.82689],[24.12143,34.836127],[24.122325,34.846503],[24.128429,34.855292]]}},{"type":"Feature","properties":{"featurecla":"Coastline","scalerank":6,"min_zoom":5},"geometry":{"type":"LineString","coordinates":[[26.976085,35.431342],[26.960704,35.429592],[26.924571,35.41767],[26.91977,35.41828],[26.908539,35.423245],[26.900238,35.424506],[26.896739,35.421332],[26.890147,35.407172],[26.886567,35.403998],[26.879405,35.399726],[26.861664,35.380927],[26.851899,35.376695],[26.848399,35.372382],[26.85377,35.362982],[26.864268,35.353583],[26.87672,35.349351],[26.888357,35.352688],[26.905772,35.366645],[26.914724,35.369859],[26.927745,35.371894],[26.937022,35.376939],[26.946056,35.383531],[26.958751,35.390326],[26.967947,35.393378],[26.992361,35.397203],[27.007091,35.397773],[27.007091,35.403998],[26.999685,35.424506],[27.007091,35.427436],[27.013357,35.431342],[27.011974,35.43769],[27.002452,35.436957],[26.976085,35.431342]]}},{"type":"Feature","properties":{"featurecla":"Coastline","scalerank":1,"min_zoom":1},"geometry":{"type":"LineString","coordinates":[[26.321137,35.315253],[26.293956,35.315253],[26.296072,35.311713],[26.298595,35.304389],[26.300792,35.300971],[26.297211,35.300605],[26.286469,35.300971],[26.293956,35.287909],[26.259532,35.284491],[26.237804,35.268785],[26.218435,35.247138],[26.190929,35.225816],[26.192638,35.222073],[26.192638,35.220933],[26.197765,35.219062],[26.179454,35.20718],[26.155121,35.197943],[26.129731,35.195868],[26.108246,35.20539],[26.11964,35.215318],[26.081391,35.223578],[26.067393,35.233303],[26.060557,35.233303],[26.055024,35.227118],[26.04949,35.226752],[26.042735,35.227769],[26.033214,35.225816],[26.02589,35.22191],[26.016612,35.214545],[25.985362,35.197943],[25.978526,35.195461],[25.941173,35.189154],[25.908539,35.187405],[25.896658,35.184882],[25.895518,35.182115],[25.883067,35.164455],[25.873302,35.158677],[25.867524,35.157416],[25.859141,35.156968],[25.847667,35.15058],[25.830333,35.122382],[25.817638,35.115953],[25.795258,35.115139],[25.782888,35.117987],[25.769786,35.126532],[25.753184,35.133124],[25.73878,35.131008],[25.728526,35.133368],[25.724783,35.153551],[25.720714,35.164293],[25.714122,35.173977],[25.712738,35.182847],[25.724783,35.191107],[25.719493,35.211371],[25.726817,35.226264],[25.735118,35.237494],[25.732188,35.246324],[25.740001,35.254381],[25.74464,35.257148],[25.74822,35.25609],[25.753266,35.25259],[25.758962,35.259996],[25.753673,35.264106],[25.753673,35.267483],[25.758962,35.274319],[25.750987,35.284125],[25.742849,35.285346],[25.737804,35.277411],[25.739024,35.259996],[25.729259,35.264553],[25.725108,35.270819],[25.726085,35.278754],[25.732188,35.287909],[25.724783,35.294135],[25.747732,35.310614],[25.759125,35.322089],[25.766368,35.335679],[25.707774,35.335679],[25.692556,35.337836],[25.671397,35.347235],[25.659923,35.349351],[25.638845,35.345893],[25.481944,35.297431],[25.453624,35.294135],[25.425304,35.299547],[25.408051,35.31269],[25.394216,35.328803],[25.375987,35.343166],[25.3685,35.335679],[25.361664,35.343166],[25.346365,35.336086],[25.331716,35.336859],[25.306977,35.343166],[25.251801,35.335679],[25.221365,35.335679],[25.212087,35.337795],[25.205333,35.342271],[25.200531,35.34691],[25.197113,35.349351],[25.181651,35.350084],[25.153168,35.344713],[25.106781,35.342475],[25.076996,35.344468],[25.055349,35.355211],[25.047048,35.380439],[25.048676,35.386664],[25.052257,35.391995],[25.054535,35.397406],[25.053233,35.403998],[25.047374,35.405504],[25.029633,35.403266],[25.018728,35.415025],[24.971202,35.424506],[24.969574,35.415758],[24.967133,35.412543],[24.96339,35.410224],[24.95753,35.403998],[24.895518,35.424506],[24.867198,35.41649],[24.850352,35.409735],[24.840831,35.403998],[24.82016,35.413031],[24.720958,35.427232],[24.698497,35.426825],[24.676931,35.423489],[24.655935,35.41767],[24.593598,35.391181],[24.566661,35.384182],[24.485362,35.372138],[24.464122,35.362454],[24.428071,35.369696],[24.340099,35.348334],[24.302989,35.35932],[24.293468,35.363756],[24.273123,35.364895],[24.265473,35.369859],[24.263438,35.378485],[24.265473,35.414252],[24.264008,35.433173],[24.252452,35.479071],[24.239106,35.470038],[24.222504,35.461168],[24.204356,35.454413],[24.186697,35.451809],[24.170177,35.456041],[24.137218,35.47484],[24.107758,35.482001],[24.089041,35.489203],[24.071951,35.498358],[24.066905,35.507025],[24.081228,35.51496],[24.103526,35.513983],[24.142589,35.507025],[24.163748,35.507758],[24.173595,35.509589],[24.182953,35.513251],[24.187755,35.518052],[24.195811,35.531562],[24.200531,35.534369],[24.203298,35.541815],[24.182953,35.585598],[24.160411,35.597073],[24.115245,35.601304],[24.081798,35.589911],[24.094086,35.554185],[24.06837,35.555487],[24.057628,35.552924],[24.053233,35.544623],[24.050955,35.534369],[24.044688,35.527655],[24.035818,35.523424],[24.025401,35.520697],[24.000499,35.519924],[23.944184,35.52497],[23.929047,35.520697],[23.901378,35.527167],[23.817149,35.534817],[23.79949,35.544623],[23.778982,35.575914],[23.77768,35.583726],[23.778982,35.609442],[23.768077,35.641059],[23.767833,35.653876],[23.778982,35.664049],[23.778982,35.671536],[23.759776,35.679429],[23.750011,35.686591],[23.741547,35.686957],[23.727061,35.674954],[23.715831,35.661526],[23.711192,35.648871],[23.713878,35.634833],[23.723643,35.616889],[23.712738,35.607001],[23.716075,35.591946],[23.724864,35.573635],[23.730479,35.554185],[23.727875,35.529853],[23.718435,35.512844],[23.702973,35.502875],[23.68336,35.499579],[23.659434,35.501207],[23.650401,35.503567],[23.641775,35.507025],[23.639496,35.510565],[23.640391,35.515082],[23.639496,35.518988],[23.631684,35.520697],[23.623709,35.52147],[23.619884,35.524075],[23.614431,35.534369],[23.608165,35.551703],[23.607677,35.592475],[23.604747,35.612616],[23.600434,35.603095],[23.580333,35.575914],[23.584483,35.564521],[23.581228,35.55268],[23.566091,35.527493],[23.571056,35.522691],[23.572602,35.520453],[23.571056,35.518134],[23.566091,35.513251],[23.566091,35.507025],[23.578461,35.500556],[23.577647,35.492906],[23.570974,35.48371],[23.560883,35.458401],[23.559825,35.451809],[23.562022,35.451728],[23.566661,35.447455],[23.571462,35.441107],[23.573497,35.43476],[23.565196,35.419094],[23.549327,35.396918],[23.538585,35.374091],[23.546153,35.356187],[23.540782,35.34516],[23.54184,35.336371],[23.546723,35.328762],[23.552989,35.321479],[23.548188,35.321479],[23.547211,35.320258],[23.547374,35.318183],[23.546153,35.315253],[23.53891,35.315172],[23.532888,35.314032],[23.51824,35.307766],[23.518321,35.303168],[23.519298,35.301744],[23.521658,35.301703],[23.525645,35.300971],[23.51824,35.294135],[23.531016,35.288479],[23.538585,35.28144],[23.544932,35.27383],[23.552989,35.266832],[23.559418,35.264594],[23.573009,35.263414],[23.580333,35.259996],[23.584483,35.254299],[23.582286,35.245185],[23.587169,35.239488],[23.610525,35.234931],[23.669119,35.237291],[23.68336,35.225816],[23.711681,35.236721],[23.782074,35.234687],[23.79949,35.246324],[23.806488,35.244574],[23.812266,35.244778],[23.81837,35.247301],[23.826671,35.25259],[23.860199,35.236314],[23.901866,35.231187],[23.987641,35.233303],[24.003266,35.226711],[24.031423,35.197699],[24.049815,35.191107],[24.076427,35.195461],[24.080577,35.194525],[24.084646,35.204535],[24.094005,35.204657],[24.111339,35.197943],[24.182953,35.197943],[24.187511,35.199408],[24.191905,35.20246],[24.197276,35.205146],[24.203949,35.20539],[24.204926,35.203437],[24.208507,35.198798],[24.21339,35.193834],[24.217784,35.191107],[24.293224,35.182278],[24.40211,35.191107],[24.40211,35.184882],[24.403819,35.175035],[24.464122,35.150133],[24.481212,35.155911],[24.500743,35.152411],[24.519054,35.144436],[24.5324,35.136461],[24.553396,35.114569],[24.564626,35.106147],[24.573985,35.109198],[24.580251,35.109198],[24.594737,35.101508],[24.618988,35.097398],[24.70753,35.096137],[24.71811,35.09398],[24.724783,35.089301],[24.729747,35.084662],[24.735118,35.082465],[24.742849,35.077216],[24.750173,35.065131],[24.75587,35.051459],[24.758962,35.04149],[24.759939,35.02733],[24.753917,35.008043],[24.752126,34.995917],[24.755219,34.957913],[24.75172,34.946479],[24.738536,34.937893],[24.738536,34.931627],[24.983735,34.938707],[25.003184,34.936957],[25.019054,34.931627],[25.044932,34.940741],[25.059744,34.94359],[25.077403,34.944729],[25.085297,34.943305],[25.090994,34.940375],[25.097423,34.937893],[25.107758,34.937893],[25.114513,34.940172],[25.122732,34.948188],[25.128917,34.951483],[25.15089,34.955715],[25.207693,34.951483],[25.223155,34.954169],[25.279796,34.972602],[25.29477,34.980943],[25.303966,34.984768],[25.328461,34.98725],[25.347667,34.991523],[25.415212,34.99372],[25.506196,34.984565],[25.522716,34.989407],[25.538097,34.997016],[25.601248,35.013577],[25.808116,35.005764],[25.881521,35.027086],[25.924083,35.034084],[25.960297,35.028957],[25.968028,35.030666],[25.976736,35.036933],[25.984874,35.03913],[25.993175,35.037055],[26.002208,35.030666],[26.020274,35.020941],[26.038097,35.020819],[26.057953,35.022895],[26.081716,35.019761],[26.089122,35.01553],[26.103689,35.002143],[26.105235,34.999335],[26.132986,34.999335],[26.147227,35.002265],[26.205089,35.023505],[26.213878,35.028225],[26.223806,35.032375],[26.235362,35.034084],[26.240977,35.039049],[26.250987,35.063056],[26.256114,35.071601],[26.266856,35.083889],[26.277517,35.100043],[26.286876,35.118232],[26.293956,35.136461],[26.285004,35.150702],[26.295421,35.166327],[26.311778,35.182359],[26.321137,35.197943],[26.29949,35.185533],[26.283865,35.208238],[26.265961,35.259996],[26.281016,35.274319],[26.297862,35.284898],[26.312348,35.296942],[26.321137,35.315253]]}},{"type":"Feature","properties":{"featurecla":"Coastline","scalerank":5,"min_zoom":3},"geometry":{"type":"LineString","coordinates":[[27.211925,35.520697],[27.205414,35.526842],[27.203787,35.527167],[27.204356,35.527655],[27.205089,35.534369],[27.208995,35.537095],[27.216482,35.544013],[27.220876,35.551011],[27.215343,35.554185],[27.208751,35.560045],[27.184581,35.595771],[27.158539,35.612047],[27.156505,35.618801],[27.156749,35.633979],[27.160981,35.651313],[27.170665,35.66356],[27.180349,35.672919],[27.184581,35.681789],[27.189789,35.697414],[27.201345,35.709418],[27.212901,35.718736],[27.218761,35.726142],[27.218516,35.734687],[27.213227,35.744778],[27.211925,35.753404],[27.211925,35.77733],[27.215017,35.790025],[27.228852,35.808987],[27.232432,35.822333],[27.226899,35.827094],[27.220958,35.82925],[27.213715,35.82803],[27.205089,35.822333],[27.190115,35.807074],[27.184581,35.801215],[27.177745,35.801215],[27.177745,35.808661],[27.171072,35.808661],[27.156749,35.801215],[27.156749,35.794379],[27.162446,35.777289],[27.161794,35.746894],[27.154145,35.717963],[27.12794,35.693345],[27.123709,35.667792],[27.115408,35.642239],[27.091807,35.630561],[27.085704,35.626288],[27.076671,35.61579],[27.069347,35.60224],[27.067882,35.588935],[27.07488,35.580227],[27.100841,35.567084],[27.108897,35.561672],[27.11378,35.550971],[27.112641,35.543606],[27.10963,35.534898],[27.108897,35.520697],[27.119802,35.493109],[27.118826,35.482652],[27.102061,35.479071],[27.102061,35.472235],[27.108897,35.472235],[27.108897,35.466051],[27.094249,35.461575],[27.093028,35.45185],[27.099783,35.440497],[27.108897,35.431342],[27.121104,35.42768],[27.135265,35.426215],[27.143077,35.420396],[27.136241,35.403998],[27.148123,35.408881],[27.158051,35.415595],[27.165863,35.423326],[27.171072,35.431342],[27.164236,35.432074],[27.160818,35.430365],[27.158946,35.427436],[27.156749,35.424506],[27.161632,35.4501],[27.180919,35.46894],[27.206798,35.477525],[27.232432,35.472235],[27.237315,35.493394],[27.233165,35.504096],[27.211925,35.520697]]}},{"type":"Feature","properties":{"featurecla":"Coastline","scalerank":6,"min_zoom":6},"geometry":{"type":"LineString","coordinates":[[23.278005,35.897447],[23.277192,35.900621],[23.277192,35.903266],[23.276052,35.90469],[23.271739,35.904242],[23.280935,35.882473],[23.287364,35.870551],[23.295665,35.859565],[23.320567,35.838528],[23.326427,35.829169],[23.333263,35.829169],[23.33074,35.864936],[23.315766,35.879543],[23.295909,35.885972],[23.278005,35.897447]]}},{"type":"Feature","properties":{"featurecla":"Coastline","scalerank":5,"min_zoom":3},"geometry":{"type":"LineString","coordinates":[[23.011729,36.308295],[22.996267,36.324164],[22.956391,36.38345],[22.944591,36.38939],[22.932628,36.381252],[22.901622,36.338324],[22.899669,36.328192],[22.903005,36.319322],[22.908702,36.308295],[22.916189,36.285102],[22.917328,36.262152],[22.908702,36.205959],[22.914561,36.200507],[22.924001,36.184394],[22.92921,36.177965],[22.932302,36.177232],[22.946137,36.177965],[22.950043,36.176256],[22.949555,36.172349],[22.948416,36.168036],[22.949555,36.164984],[22.977224,36.157945],[22.987559,36.151557],[22.990733,36.13703],[23.002452,36.146633],[23.014415,36.148342],[23.032237,36.144477],[23.046886,36.143215],[23.052013,36.144843],[23.054454,36.203355],[23.058442,36.216457],[23.066254,36.226386],[23.082856,36.232489],[23.09783,36.232978],[23.103852,36.237209],[23.094412,36.25434],[23.076915,36.270738],[23.011729,36.308295]]}},{"type":"Feature","properties":{"featurecla":"Coastline","scalerank":6,"min_zoom":6},"geometry":{"type":"LineString","coordinates":[[25.735606,36.38345],[25.730235,36.380113],[25.732432,36.373033],[25.736827,36.366156],[25.743337,36.358832],[25.74643,36.357978],[25.750987,36.358222],[25.776866,36.353827],[25.789806,36.356594],[25.801768,36.361233],[25.817638,36.363593],[25.828461,36.359198],[25.838064,36.351793],[25.846853,36.350287],[25.855154,36.363593],[25.83546,36.366156],[25.802989,36.389594],[25.767833,36.401597],[25.758962,36.395982],[25.749522,36.387681],[25.735606,36.38345]]}},{"type":"Feature","properties":{"featurecla":"Coastline","scalerank":3,"min_zoom":2},"geometry":{"type":"LineString","coordinates":[[28,36.374506367439864],[27.959239,36.356757],[27.899669,36.340155],[27.89031,36.332587],[27.882823,36.321479],[27.849457,36.293524],[27.84197,36.284735],[27.837413,36.280992],[27.807872,36.274237],[27.803233,36.270209],[27.794119,36.25434],[27.78712,36.245185],[27.780447,36.232611],[27.778168,36.2237],[27.778087,36.217108],[27.776052,36.211615],[27.767426,36.205959],[27.771983,36.197821],[27.763357,36.192206],[27.739513,36.185452],[27.700694,36.163398],[27.684255,36.158149],[27.690929,36.149482],[27.696544,36.149563],[27.702891,36.150458],[27.71225,36.144477],[27.713552,36.139797],[27.707286,36.132025],[27.708832,36.127102],[27.733165,36.104641],[27.746837,36.096177],[27.757091,36.084377],[27.76002,36.061957],[27.75408,36.037177],[27.725352,35.96719],[27.71225,35.952704],[27.730317,35.92178],[27.732677,35.915107],[27.739268,35.913153],[27.780447,35.890041],[27.827403,35.913764],[27.863536,35.940985],[27.892345,35.97191],[27.932302,36.025336],[27.948416,36.039008],[27.993419,36.061957],[28,36.063926627067474]]}},{"type":"Feature","properties":{"featurecla":"Coastline","scalerank":5,"min_zoom":4},"geometry":{"type":"LineString","coordinates":[[25.382091,36.479641],[25.377778,36.478013],[25.373057,36.475287],[25.3685,36.473456],[25.3685,36.46662],[25.407074,36.457994],[25.421886,36.451117],[25.41627,36.438666],[25.41627,36.432522],[25.425304,36.427151],[25.430024,36.417141],[25.436778,36.390937],[25.428722,36.385443],[25.4192,36.370063],[25.409434,36.363593],[25.396983,36.361314],[25.373383,36.36164],[25.361664,36.356757],[25.379893,36.348944],[25.426443,36.337958],[25.446625,36.33633],[25.465099,36.342434],[25.479991,36.357856],[25.489268,36.377834],[25.491384,36.397691],[25.479177,36.424384],[25.452403,36.450263],[25.417979,36.470404],[25.382091,36.479641]]}},{"type":"Feature","properties":{"featurecla":"Coastline","scalerank":6,"min_zoom":5},"geometry":{"type":"LineString","coordinates":[[27.396821,36.438666],[27.381684,36.444159],[27.3685,36.472398],[27.355805,36.479641],[27.341563,36.473456],[27.325043,36.4619],[27.310232,36.457709],[27.300629,36.473456],[27.297048,36.465155],[27.295177,36.455634],[27.294444,36.435533],[27.296886,36.427558],[27.309337,36.420152],[27.314952,36.411363],[27.321788,36.411363],[27.328868,36.420559],[27.338145,36.428412],[27.34962,36.43122],[27.362804,36.424994],[27.357432,36.410224],[27.364757,36.393378],[27.37794,36.382025],[27.390147,36.38345],[27.399262,36.37873],[27.404307,36.38345],[27.415863,36.380316],[27.428233,36.385199],[27.438731,36.394477],[27.444672,36.404527],[27.44337,36.412055],[27.441905,36.415107],[27.438487,36.418158],[27.420665,36.408637],[27.399587,36.410142],[27.387462,36.420844],[27.396821,36.438666]]}},{"type":"Feature","properties":{"featurecla":"Coastline","scalerank":5,"min_zoom":3},"geometry":{"type":"LineString","coordinates":[[26.362153,36.637885],[26.362153,36.63052],[26.369965,36.624416],[26.378673,36.619208],[26.389415,36.616197],[26.388927,36.613349],[26.384939,36.604804],[26.39031,36.595445],[26.403819,36.589504],[26.393891,36.585679],[26.385916,36.586086],[26.377289,36.588202],[26.365977,36.589504],[26.360606,36.586493],[26.350841,36.57274],[26.341645,36.569037],[26.328461,36.575263],[26.311778,36.58808],[26.29477,36.596584],[26.280284,36.589504],[26.266449,36.595933],[26.261485,36.587633],[26.264334,36.57331],[26.273448,36.561591],[26.269786,36.557766],[26.268321,36.554999],[26.265961,36.547919],[26.282237,36.539862],[26.300955,36.513251],[26.317719,36.507554],[26.341645,36.509345],[26.349457,36.515611],[26.347667,36.528022],[26.348643,36.541083],[26.363048,36.563666],[26.373302,36.572414],[26.386729,36.575873],[26.415863,36.574897],[26.429698,36.578599],[26.444672,36.589504],[26.450043,36.580552],[26.454926,36.57685],[26.459972,36.577704],[26.465994,36.582709],[26.459483,36.596666],[26.430512,36.61872],[26.393321,36.636542],[26.362153,36.637885]]}},{"type":"Feature","properties":{"featurecla":"Coastline","scalerank":5,"min_zoom":4},"geometry":{"type":"LineString","coordinates":[[27.869884,36.589504],[27.872895,36.599595],[27.87322,36.605455],[27.869884,36.606676],[27.863048,36.602525],[27.865489,36.605536],[27.867931,36.609442],[27.871349,36.613349],[27.87672,36.616848],[27.87379,36.619086],[27.872813,36.619615],[27.872081,36.620551],[27.869884,36.624254],[27.835704,36.602525],[27.828624,36.612982],[27.824474,36.612942],[27.815278,36.610012],[27.822276,36.623765],[27.835216,36.63109],[27.863048,36.637885],[27.861013,36.646715],[27.84197,36.644721],[27.818126,36.634019],[27.801524,36.616848],[27.801524,36.624254],[27.795258,36.61872],[27.792491,36.617174],[27.787852,36.616848],[27.786957,36.606269],[27.777843,36.595608],[27.766856,36.585191],[27.76002,36.575873],[27.807872,36.575873],[27.792491,36.566962],[27.805919,36.560126],[27.849376,36.547919],[27.842621,36.543606],[27.834158,36.536526],[27.828298,36.534247],[27.828298,36.528022],[27.843028,36.527899],[27.854503,36.530504],[27.87672,36.541083],[27.874848,36.546454],[27.872081,36.55036],[27.868012,36.553209],[27.863048,36.555365],[27.867524,36.55683],[27.87672,36.561591],[27.872569,36.569241],[27.870616,36.577786],[27.869884,36.589504]]}},{"type":"Feature","properties":{"featurecla":"Coastline","scalerank":6,"min_zoom":6},"geometry":{"type":"LineString","coordinates":[[24.868175,36.665229],[24.861664,36.665961],[24.840831,36.665229],[24.849783,36.646918],[24.863455,36.63817],[24.879405,36.632799],[24.895518,36.624254],[24.922862,36.602281],[24.937999,36.597724],[24.963715,36.59634],[24.963715,36.602525],[24.947927,36.624335],[24.868175,36.665229]]}},{"type":"Feature","properties":{"featurecla":"Coastline","scalerank":6,"min_zoom":6},"geometry":{"type":"LineString","coordinates":[[25.146251,36.719875],[25.136404,36.716702],[25.116466,36.702582],[25.104666,36.699368],[25.067393,36.637885],[25.09311,36.636623],[25.129568,36.660346],[25.183442,36.706204],[25.182465,36.7119],[25.183116,36.716376],[25.185802,36.719143],[25.146251,36.719875]]}},{"type":"Feature","properties":{"featurecla":"Coastline","scalerank":6,"min_zoom":6},"geometry":{"type":"LineString","coordinates":[[21.764171,36.753974],[21.759532,36.751899],[21.756114,36.741116],[21.750499,36.712388],[21.764171,36.719875],[21.765961,36.71133],[21.768077,36.708075],[21.771658,36.705552],[21.777843,36.699368],[21.778005,36.720364],[21.781586,36.736396],[21.78004,36.747504],[21.764171,36.753974]]}},{"type":"Feature","properties":{"featurecla":"Coastline","scalerank":5,"min_zoom":3},"geometry":{"type":"LineString","coordinates":[[24.474376,36.747138],[24.45045,36.753404],[24.433279,36.765041],[24.420258,36.771064],[24.408865,36.76081],[24.408865,36.753974],[24.418712,36.745103],[24.427094,36.733832],[24.43686,36.727484],[24.450531,36.733547],[24.459158,36.726711],[24.468516,36.715155],[24.471446,36.70425],[24.460704,36.699368],[24.426524,36.699368],[24.407237,36.707261],[24.395356,36.735907],[24.381602,36.733547],[24.373057,36.737942],[24.365489,36.742987],[24.35906,36.748481],[24.354259,36.753974],[24.344737,36.745673],[24.336681,36.727769],[24.326996,36.719875],[24.331391,36.718166],[24.340668,36.712388],[24.335785,36.708075],[24.331309,36.702135],[24.326996,36.699368],[24.331309,36.687161],[24.322927,36.665351],[24.326996,36.650946],[24.364594,36.663031],[24.48463,36.665229],[24.518403,36.673651],[24.537608,36.681383],[24.546072,36.688788],[24.543224,36.743109],[24.546072,36.753974],[24.533376,36.768012],[24.512706,36.763983],[24.474376,36.747138]]}},{"type":"Feature","properties":{"featurecla":"Coastline","scalerank":6,"min_zoom":6},"geometry":{"type":"LineString","coordinates":[[24.642263,36.788764],[24.643809,36.792955],[24.638682,36.794623],[24.621837,36.794989],[24.608165,36.781317],[24.629731,36.757554],[24.644786,36.74726],[24.659353,36.750556],[24.667735,36.763983],[24.665782,36.774644],[24.656261,36.782904],[24.642263,36.788764]]}},{"type":"Feature","properties":{"featurecla":"Coastline","scalerank":5,"min_zoom":4},"geometry":{"type":"LineString","coordinates":[[25.27296,36.719875],[25.337901,36.66828],[25.37322,36.653713],[25.395193,36.6789],[25.395193,36.685126],[25.389496,36.694241],[25.390147,36.703681],[25.396983,36.710517],[25.409434,36.712388],[25.399425,36.727973],[25.3838,36.735093],[25.365896,36.739569],[25.347992,36.747138],[25.336192,36.757717],[25.319509,36.781928],[25.306977,36.794989],[25.262706,36.767646],[25.264985,36.762152],[25.26238,36.749701],[25.257091,36.735907],[25.251801,36.726711],[25.271169,36.725816],[25.279796,36.726711],[25.277599,36.723538],[25.276378,36.722561],[25.275238,36.72191],[25.27296,36.719875]]}},{"type":"Feature","properties":{"featurecla":"Coastline","scalerank":6,"min_zoom":6},"geometry":{"type":"LineString","coordinates":[[21.695811,36.740383],[21.702322,36.751939],[21.71046,36.761664],[21.716563,36.770941],[21.716319,36.781317],[21.720388,36.783515],[21.724946,36.78677],[21.72934,36.788764],[21.72934,36.794989],[21.72283,36.794623],[21.718435,36.796576],[21.714529,36.799384],[21.709483,36.801744],[21.700857,36.791083],[21.696951,36.775824],[21.695811,36.740383]]}},{"type":"Feature","properties":{"featurecla":"Coastline","scalerank":6,"min_zoom":6},"geometry":{"type":"LineString","coordinates":[[24.608165,36.835924],[24.603038,36.8369],[24.602306,36.83808],[24.60255,36.83983],[24.600759,36.84276],[24.592459,36.83747],[24.585948,36.836493],[24.580089,36.838609],[24.573985,36.84276],[24.561778,36.845649],[24.547211,36.842475],[24.53419,36.836127],[24.526134,36.829088],[24.521169,36.817369],[24.524099,36.810492],[24.529552,36.803656],[24.5324,36.791897],[24.539806,36.784491],[24.556407,36.780341],[24.572765,36.781928],[24.600434,36.822089],[24.608165,36.829088],[24.608165,36.835924]]}},{"type":"Feature","properties":{"featurecla":"Coastline","scalerank":6,"min_zoom":6},"geometry":{"type":"LineString","coordinates":[[25.423106,36.832506],[25.434418,36.822659],[25.457856,36.824856],[25.477794,36.83515],[25.478526,36.860012],[25.47641,36.862698],[25.470958,36.863227],[25.478363,36.870673],[25.470958,36.870673],[25.446951,36.857408],[25.430349,36.844062],[25.423106,36.832506]]}},{"type":"Feature","properties":{"featurecla":"Coastline","scalerank":5,"min_zoom":3},"geometry":{"type":"LineString","coordinates":[[27.280935,36.907904],[27.265636,36.904039],[27.164236,36.891181],[27.061209,36.839342],[27.055186,36.832668],[27.020763,36.80858],[27.007498,36.787828],[26.999522,36.77851],[26.986013,36.767646],[26.964041,36.778022],[26.958751,36.781317],[26.953868,36.775946],[26.942393,36.766262],[26.937673,36.76081],[26.92628,36.765611],[26.920258,36.751166],[26.917735,36.716132],[26.92335,36.706204],[26.937266,36.692776],[26.955333,36.681708],[26.972911,36.6789],[26.966563,36.691718],[26.965668,36.705552],[26.97169,36.716254],[26.986013,36.719875],[26.975759,36.74079],[26.992035,36.753607],[27.047537,36.775092],[27.060069,36.767401],[27.083181,36.761217],[27.10906,36.758287],[27.129893,36.76081],[27.190766,36.812323],[27.214203,36.823879],[27.323416,36.8487],[27.355805,36.863227],[27.340994,36.881903],[27.291515,36.891832],[27.280935,36.907904]]}},{"type":"Feature","properties":{"featurecla":"Coastline","scalerank":6,"min_zoom":6},"geometry":{"type":"LineString","coordinates":[[25.608653,36.883734],[25.631602,36.882636],[25.654633,36.878892],[25.674001,36.879462],[25.684418,36.891181],[25.659434,36.907457],[25.649669,36.911607],[25.637462,36.903225],[25.624848,36.898749],[25.614594,36.893744],[25.608653,36.883734]]}},{"type":"Feature","properties":{"featurecla":"Coastline","scalerank":5,"min_zoom":3},"geometry":{"type":"LineString","coordinates":[[26.00587,36.93891],[25.998383,36.93891],[25.990245,36.930732],[25.978363,36.924954],[25.950694,36.918443],[25.950694,36.911607],[25.958669,36.910549],[25.962657,36.908759],[25.966075,36.906643],[25.971853,36.904202],[25.971853,36.898017],[25.856619,36.85106],[25.84547,36.849555],[25.843761,36.84512],[25.84547,36.836615],[25.851573,36.831122],[25.863129,36.835924],[25.849376,36.812201],[25.84547,36.80858],[25.823009,36.808743],[25.814138,36.80683],[25.807384,36.801744],[25.800548,36.801744],[25.78891,36.809231],[25.774099,36.807115],[25.760753,36.799058],[25.753266,36.788764],[25.739024,36.794989],[25.755544,36.769965],[25.798676,36.772773],[25.879649,36.794989],[25.893565,36.803453],[25.921397,36.841051],[25.934255,36.849555],[25.948578,36.854234],[25.990977,36.879096],[26.00587,36.891181],[26.015961,36.889472],[26.031993,36.893948],[26.050141,36.896959],[26.067393,36.891181],[26.070486,36.892076],[26.07309,36.892076],[26.074718,36.893297],[26.074229,36.898017],[26.05421,36.903551],[26.035411,36.912991],[26.019054,36.925116],[26.00587,36.93891]]}},{"type":"Feature","properties":{"featurecla":"Coastline","scalerank":6,"min_zoom":6},"geometry":{"type":"LineString","coordinates":[[25.081065,36.952623],[25.071951,36.963853],[25.066254,36.968695],[25.059906,36.97309],[25.069591,36.989569],[25.087901,37.041978],[25.072765,37.042182],[25.053233,37.034369],[25.035492,37.021918],[25.02589,37.00788],[25.030528,36.988959],[25.047048,36.969224],[25.066661,36.955146],[25.081065,36.952623]]}},{"type":"Feature","properties":{"featurecla":"Coastline","scalerank":5,"min_zoom":4},"geometry":{"type":"LineString","coordinates":[[24.704356,37.035142],[24.69752,37.035142],[24.689301,37.029202],[24.679698,37.032864],[24.655935,37.048814],[24.642263,37.048814],[24.642589,37.044176],[24.643403,37.042873],[24.645681,37.042873],[24.649669,37.041978],[24.644054,37.035631],[24.642833,37.03266],[24.642263,37.027737],[24.654063,37.024319],[24.665863,37.007473],[24.676524,37.000434],[24.676524,36.993598],[24.6692,36.978461],[24.678884,36.951483],[24.695811,36.923245],[24.710623,36.904202],[24.745291,36.935533],[24.748546,36.939358],[24.762706,36.94538],[24.765798,36.949205],[24.764659,36.95661],[24.751638,36.985785],[24.716156,37.020087],[24.704356,37.035142]]}},{"type":"Feature","properties":{"featurecla":"Coastline","scalerank":5,"min_zoom":4},"geometry":{"type":"LineString","coordinates":[[26.911632,36.945787],[26.921153,36.947089],[26.929861,36.942776],[26.937755,36.935045],[26.945079,36.92593],[26.951915,36.931627],[26.958751,36.930976],[26.966319,36.927802],[26.976085,36.92593],[26.983409,36.929511],[26.986176,36.93769],[26.988292,36.946682],[26.993419,36.952623],[27.023611,36.945014],[27.040375,36.945054],[27.047537,36.959418],[27.04127,36.959418],[27.04127,36.952623],[27.033865,36.952623],[27.034923,36.95718],[27.036306,36.96015],[27.04127,36.966864],[27.036876,36.978461],[27.044281,36.996243],[27.04127,37.00788],[27.032481,37.012356],[27.023936,37.012681],[27.015391,37.008734],[27.007091,37.000434],[27.00587,37.016181],[26.995291,37.022895],[26.982188,37.028754],[26.972911,37.041978],[26.986013,37.041978],[26.986013,37.048814],[26.901622,37.077297],[26.889822,37.089789],[26.88559,37.075588],[26.888927,37.07099],[26.896007,37.068915],[26.903494,37.062486],[26.912446,37.046942],[26.917166,37.041653],[26.924571,37.035142],[26.928396,37.036363],[26.935069,37.039618],[26.943614,37.040717],[26.951915,37.035142],[26.953868,37.027899],[26.951182,37.021186],[26.947276,37.016181],[26.945079,37.014106],[26.93865,37.004543],[26.929861,36.993964],[26.925304,36.981676],[26.931407,36.966864],[26.924978,36.96308],[26.920258,36.958808],[26.911632,36.945787]]}},{"type":"Feature","properties":{"featurecla":"Coastline","scalerank":6,"min_zoom":6},"geometry":{"type":"LineString","coordinates":[[25.807384,37.10342],[25.819102,37.09691],[25.829112,37.097317],[25.836762,37.102362],[25.842052,37.110297],[25.837169,37.113674],[25.82838,37.123969],[25.832042,37.130194],[25.834646,37.1376],[25.809825,37.126899],[25.797374,37.123236],[25.780528,37.123969],[25.800548,37.095933],[25.80421,37.098049],[25.805024,37.098293],[25.805431,37.099189],[25.807384,37.10342]]}},{"type":"Feature","properties":{"featurecla":"Coastline","scalerank":5,"min_zoom":3},"geometry":{"type":"LineString","coordinates":[[25.279796,37.048814],[25.279796,37.054999],[25.266124,37.054999],[25.266124,37.062486],[25.279796,37.062486],[25.279796,37.069281],[25.262869,37.075588],[25.26295,37.08983],[25.279796,37.123969],[25.28419,37.129462],[25.288097,37.136542],[25.291352,37.144232],[25.293305,37.151842],[25.279796,37.152737],[25.266124,37.151842],[25.270274,37.141547],[25.27296,37.1376],[25.259288,37.123969],[25.231944,37.127509],[25.223969,37.134345],[25.23878,37.151842],[25.209809,37.144029],[25.178559,37.129462],[25.150076,37.110541],[25.135753,37.093817],[25.142426,37.094916],[25.149262,37.093492],[25.156261,37.089789],[25.125336,37.07453],[25.112966,37.06273],[25.103038,37.024319],[25.103363,37.012885],[25.111501,37.00788],[25.121918,37.004584],[25.143321,36.990058],[25.152843,36.986762],[25.188487,36.985297],[25.204438,36.988959],[25.232188,37.005113],[25.244802,37.014594],[25.251801,37.02147],[25.258637,37.031317],[25.263031,37.039944],[25.268809,37.046129],[25.279796,37.048814]]}},{"type":"Feature","properties":{"featurecla":"Coastline","scalerank":5,"min_zoom":3},"geometry":{"type":"LineString","coordinates":[[25.526134,37.196234],[25.522146,37.193183],[25.502289,37.191718],[25.495128,37.189114],[25.480235,37.167914],[25.47462,37.161811],[25.409434,37.123969],[25.371837,37.089057],[25.361664,37.082953],[25.3567,37.087714],[25.352387,37.089097],[25.347504,37.087388],[25.341807,37.082953],[25.341807,37.076728],[25.355479,37.071357],[25.366954,37.059556],[25.382091,37.035142],[25.381033,37.033149],[25.379731,37.026842],[25.380707,37.018744],[25.385509,37.010972],[25.391287,37.004381],[25.394054,36.998114],[25.393321,36.992174],[25.388927,36.986762],[25.416677,36.973131],[25.423106,36.966864],[25.426443,36.959377],[25.432384,36.939276],[25.436778,36.932115],[25.443696,36.926093],[25.447602,36.92475],[25.44988,36.918443],[25.461111,36.924506],[25.479991,36.928412],[25.491384,36.932115],[25.526134,36.959418],[25.540375,36.964097],[25.547374,36.965318],[25.552501,36.96894],[25.580821,37.017768],[25.583018,37.039781],[25.592784,37.080878],[25.595063,37.099677],[25.592459,37.142524],[25.586274,37.160631],[25.574555,37.178534],[25.550141,37.193793],[25.533702,37.20067],[25.526134,37.196234]]}},{"type":"Feature","properties":{"featurecla":"Coastline","scalerank":5,"min_zoom":4},"geometry":{"type":"LineString","coordinates":[[24.443696,37.178534],[24.434744,37.175482],[24.432791,37.172268],[24.436209,37.164862],[24.427745,37.159613],[24.423025,37.154731],[24.423513,37.149848],[24.430512,37.144436],[24.421886,37.13817],[24.419119,37.135647],[24.422537,37.123969],[24.428071,37.130316],[24.434418,37.134182],[24.442068,37.134467],[24.450531,37.130113],[24.455821,37.135891],[24.459483,37.137193],[24.462087,37.13349],[24.464122,37.123969],[24.472504,37.128363],[24.480968,37.129706],[24.489757,37.128119],[24.498302,37.123969],[24.495453,37.12287],[24.492849,37.123196],[24.490977,37.12226],[24.491466,37.117743],[24.494395,37.115424],[24.495372,37.114407],[24.495942,37.113105],[24.498302,37.110297],[24.508149,37.115912],[24.51531,37.12287],[24.518891,37.132066],[24.518809,37.144436],[24.526134,37.144436],[24.5324,37.130113],[24.534516,37.148342],[24.534679,37.16767],[24.532074,37.185614],[24.526134,37.199652],[24.520518,37.203925],[24.514903,37.206],[24.509776,37.204901],[24.505138,37.199652],[24.498302,37.199652],[24.485606,37.206122],[24.468272,37.202094],[24.436209,37.18537],[24.443696,37.178534]]}},{"type":"Feature","properties":{"featurecla":"Coastline","scalerank":6,"min_zoom":6},"geometry":{"type":"LineString","coordinates":[[23.128429,37.288398],[23.1185,37.287787],[23.109548,37.285346],[23.10141,37.280951],[23.094412,37.274726],[23.109141,37.264146],[23.118988,37.252834],[23.131033,37.24372],[23.152029,37.239976],[23.162364,37.244208],[23.164724,37.253811],[23.162446,37.26435],[23.158458,37.271389],[23.151052,37.276801],[23.134288,37.284573],[23.128429,37.288398]]}},{"type":"Feature","properties":{"featurecla":"Coastline","scalerank":6,"min_zoom":5},"geometry":{"type":"LineString","coordinates":[[23.587169,37.370917],[23.552989,37.370917],[23.532563,37.363918],[23.487641,37.363511],[23.463634,37.357327],[23.374278,37.309516],[23.374278,37.30268],[23.396495,37.303209],[23.453624,37.316352],[23.476085,37.316718],[23.496837,37.320014],[23.5088,37.329901],[23.505138,37.34984],[23.523285,37.346625],[23.547699,37.34984],[23.571137,37.358344],[23.587169,37.370917]]}},{"type":"Feature","properties":{"featurecla":"Coastline","scalerank":5,"min_zoom":4},"geometry":{"type":"LineString","coordinates":[[24.367931,37.411933],[24.384532,37.416815],[24.394786,37.41177],[24.396821,37.401516],[24.388438,37.390815],[24.388438,37.384589],[24.393321,37.382758],[24.397634,37.379299],[24.40211,37.377143],[24.40211,37.370917],[24.38559,37.361151],[24.37672,37.344957],[24.367931,37.309516],[24.389008,37.31391],[24.411794,37.323961],[24.429698,37.338813],[24.443696,37.34984],[24.446137,37.36579],[24.45281,37.38345],[24.46339,37.394477],[24.477794,37.390815],[24.482677,37.412421],[24.469412,37.427476],[24.430512,37.446031],[24.434337,37.450751],[24.441173,37.464911],[24.443696,37.472724],[24.443696,37.487006],[24.436209,37.487006],[24.419607,37.471584],[24.395681,37.456855],[24.374848,37.438463],[24.367931,37.411933]]}},{"type":"Feature","properties":{"featurecla":"Coastline","scalerank":5,"min_zoom":3},"geometry":{"type":"LineString","coordinates":[[25.395193,37.418158],[25.402599,37.418158],[25.407725,37.436835],[25.423595,37.441107],[25.442556,37.440904],[25.457286,37.446031],[25.463145,37.454739],[25.465587,37.463365],[25.462901,37.470038],[25.443614,37.475043],[25.43629,37.479885],[25.430837,37.484809],[25.426768,37.487006],[25.395356,37.493964],[25.38559,37.489936],[25.382091,37.469672],[25.377289,37.467434],[25.347992,37.508124],[25.337738,37.499579],[25.324392,37.495103],[25.312673,37.488227],[25.306977,37.472724],[25.322439,37.471015],[25.326427,37.462877],[25.3213,37.439195],[25.318858,37.438422],[25.313975,37.438422],[25.309255,37.436184],[25.306977,37.428656],[25.307791,37.424465],[25.308849,37.422675],[25.309255,37.419745],[25.306977,37.411933],[25.382579,37.419745],[25.395193,37.418158]]}},{"type":"Feature","properties":{"featurecla":"Coastline","scalerank":5,"min_zoom":4},"geometry":{"type":"LineString","coordinates":[[24.94337,37.435492],[24.945323,37.443345],[24.954926,37.452623],[24.95753,37.459703],[24.955089,37.470649],[24.94809,37.485582],[24.938813,37.499742],[24.929698,37.508124],[24.904959,37.51081],[24.895356,37.510443],[24.896251,37.501939],[24.902354,37.48017],[24.90268,37.465766],[24.898123,37.448676],[24.886729,37.435289],[24.868175,37.431789],[24.877778,37.426907],[24.881847,37.425605],[24.874034,37.420722],[24.868175,37.4147],[24.864024,37.407294],[24.861339,37.398261],[24.882009,37.397691],[24.888682,37.398261],[24.888682,37.390815],[24.884613,37.385932],[24.882172,37.380357],[24.881358,37.373236],[24.881847,37.363511],[24.896251,37.371649],[24.956554,37.39704],[24.964041,37.40176],[24.966156,37.407782],[24.963715,37.418158],[24.959158,37.424872],[24.952322,37.429674],[24.946056,37.43301],[24.94337,37.435492]]}},{"type":"Feature","properties":{"featurecla":"Coastline","scalerank":6,"min_zoom":6},"geometry":{"type":"LineString","coordinates":[[23.477306,37.555894],[23.475434,37.540839],[23.46461,37.533759],[23.43629,37.528022],[23.43629,37.521796],[23.455903,37.512519],[23.481212,37.509589],[23.506358,37.512844],[23.525645,37.521796],[23.525645,37.528022],[23.511567,37.529039],[23.500824,37.53262],[23.492035,37.53913],[23.484141,37.549058],[23.483165,37.552314],[23.483165,37.554999],[23.481781,37.556464],[23.477306,37.555894]]}},{"type":"Feature","properties":{"featurecla":"Coastline","scalerank":5,"min_zoom":3},"geometry":{"type":"LineString","coordinates":[[25.091319,37.582587],[25.103282,37.578437],[25.115571,37.560126],[25.125499,37.555894],[25.1421,37.55272],[25.169932,37.538642],[25.215994,37.532904],[25.227306,37.537421],[25.234711,37.562893],[25.259288,37.590033],[25.256602,37.600084],[25.252778,37.60871],[25.247325,37.614895],[25.23878,37.617377],[25.245616,37.624213],[25.222992,37.629828],[25.192638,37.641303],[25.164806,37.645819],[25.149425,37.631049],[25.139822,37.642727],[25.122732,37.651679],[25.10377,37.653754],[25.087901,37.64468],[25.083263,37.650377],[25.077485,37.654934],[25.070079,37.657782],[25.059906,37.658352],[25.059906,37.665188],[25.067393,37.665188],[25.067393,37.672593],[25.057791,37.677314],[25.053233,37.67886],[24.997895,37.681871],[24.984874,37.67886],[24.981456,37.670233],[24.984386,37.658026],[24.990977,37.645982],[24.997895,37.637885],[25.008637,37.631781],[25.047048,37.617377],[25.080577,37.586859],[25.091319,37.582587]]}},{"type":"Feature","properties":{"featurecla":"Coastline","scalerank":5,"min_zoom":3},"geometry":{"type":"LineString","coordinates":[[24.374766,37.686265],[24.369151,37.68537],[24.364594,37.686103],[24.361664,37.685045],[24.361095,37.67886],[24.354259,37.67886],[24.347992,37.684882],[24.339692,37.686265],[24.330414,37.683987],[24.320649,37.67886],[24.320649,37.672593],[24.323578,37.672065],[24.333832,37.672593],[24.327891,37.664984],[24.320649,37.658352],[24.305675,37.660834],[24.289317,37.645331],[24.278087,37.62287],[24.278575,37.604315],[24.279959,37.595771],[24.275157,37.5456],[24.275401,37.531684],[24.293468,37.525702],[24.312999,37.538235],[24.340668,37.569566],[24.370128,37.59512],[24.395763,37.624661],[24.402517,37.655748],[24.374766,37.686265]]}},{"type":"Feature","properties":{"featurecla":"Coastline","scalerank":5,"min_zoom":3},"geometry":{"type":"LineString","coordinates":[[26.362153,37.686265],[26.31365,37.683173],[26.280772,37.675442],[26.254242,37.652004],[26.227224,37.639594],[26.197439,37.63227],[26.177257,37.637885],[26.156423,37.632799],[26.098969,37.639065],[26.074229,37.637885],[26.060313,37.630683],[26.042003,37.617011],[26.026378,37.600816],[26.019705,37.58633],[26.01238,37.575019],[25.979747,37.548651],[25.971853,37.535468],[25.976329,37.516018],[25.990733,37.51317],[26.029796,37.521796],[26.042735,37.520941],[26.050792,37.519477],[26.057872,37.519232],[26.067393,37.521796],[26.078298,37.527574],[26.097911,37.542792],[26.108246,37.549058],[26.12794,37.555813],[26.213878,37.565131],[26.230642,37.571357],[26.319102,37.634263],[26.344574,37.659491],[26.362153,37.686265]]}},{"type":"Feature","properties":{"featurecla":"Coastline","scalerank":6,"min_zoom":5},"geometry":{"type":"LineString","coordinates":[[23.546153,37.7744],[23.425629,37.768215],[23.42449,37.761786],[23.427094,37.747748],[23.434418,37.733588],[23.446544,37.72724],[23.459321,37.723334],[23.468272,37.714504],[23.469005,37.705024],[23.457367,37.699286],[23.457367,37.69245],[23.471365,37.688178],[23.476573,37.684963],[23.484141,37.67886],[23.49464,37.683498],[23.517345,37.6883],[23.525645,37.69245],[23.530121,37.702948],[23.529552,37.714504],[23.532074,37.725328],[23.546153,37.733466],[23.544932,37.745063],[23.556814,37.757636],[23.563162,37.768256],[23.546153,37.7744]]}},{"type":"Feature","properties":{"featurecla":"Coastline","scalerank":5,"min_zoom":3},"geometry":{"type":"LineString","coordinates":[[27.047537,37.72724],[27.042247,37.737982],[27.036143,37.746039],[27.032237,37.75316],[27.033865,37.761379],[27.039317,37.764065],[27.067882,37.7744],[27.021007,37.777167],[26.993988,37.784003],[26.993419,37.796129],[26.983572,37.78856],[26.973643,37.784491],[26.961599,37.78441],[26.945079,37.788723],[26.954356,37.776557],[26.964203,37.767524],[26.9699,37.758775],[26.966075,37.747748],[26.955333,37.756903],[26.916677,37.777818],[26.881847,37.785386],[26.855724,37.80268],[26.842052,37.809149],[26.806407,37.814521],[26.771821,37.814114],[26.658051,37.792792],[26.649587,37.785224],[26.643891,37.772406],[26.629893,37.767646],[26.612071,37.765611],[26.594981,37.761379],[26.583995,37.752265],[26.580251,37.74079],[26.581309,37.716702],[26.583507,37.704169],[26.589529,37.687079],[26.598399,37.677191],[26.609223,37.686265],[26.615489,37.686265],[26.615489,37.67886],[26.622895,37.67886],[26.628429,37.69066],[26.64088,37.699449],[26.657237,37.704901],[26.683604,37.707831],[26.699392,37.71247],[26.708263,37.713568],[26.716482,37.711371],[26.727306,37.701565],[26.750987,37.696682],[26.760916,37.689683],[26.77711,37.668891],[26.781098,37.661322],[26.783376,37.653388],[26.787446,37.647203],[26.797374,37.64468],[26.86085,37.643378],[26.869314,37.64468],[26.878754,37.648871],[26.881847,37.653022],[26.8838,37.658149],[26.889822,37.665188],[26.900727,37.673407],[26.910004,37.678046],[27.000824,37.70661],[27.036957,37.712877],[27.061209,37.706732],[27.06658,37.718329],[27.065278,37.729071],[27.058767,37.733791],[27.047537,37.72724]]}},{"type":"Feature","properties":{"featurecla":"Coastline","scalerank":5,"min_zoom":3},"geometry":{"type":"LineString","coordinates":[[20.901378,37.792426],[20.885997,37.813951],[20.850108,37.836412],[20.808849,37.849555],[20.777192,37.843329],[20.752452,37.854885],[20.741954,37.862291],[20.734141,37.881903],[20.713634,37.913153],[20.714366,37.915269],[20.709809,37.919623],[20.709727,37.922065],[20.708995,37.925238],[20.68572,37.929592],[20.660004,37.910549],[20.619477,37.864407],[20.627696,37.857611],[20.622081,37.851304],[20.626475,37.834418],[20.619477,37.822821],[20.642426,37.811103],[20.680431,37.769965],[20.702159,37.754543],[20.704356,37.738349],[20.727794,37.718492],[20.777192,37.686265],[20.807872,37.656073],[20.815115,37.651516],[20.835948,37.651516],[20.846853,37.653306],[20.851329,37.65941],[20.853038,37.672593],[20.849376,37.67829],[20.843761,37.689927],[20.843516,37.701565],[20.856456,37.706732],[20.863292,37.710598],[20.869884,37.719143],[20.879161,37.728217],[20.893891,37.733466],[20.920909,37.731676],[20.954356,37.723863],[20.983084,37.712307],[20.996349,37.699286],[20.986827,37.729885],[20.917979,37.765286],[20.901378,37.792426]]}},{"type":"Feature","properties":{"featurecla":"Coastline","scalerank":5,"min_zoom":3},"geometry":{"type":"MultiLineString","coordinates":[[[24.99171,37.768215],[24.980479,37.773993],[24.964366,37.768744],[24.95753,37.7744],[24.958344,37.781236],[24.965587,37.787828],[24.972016,37.796373],[24.971202,37.809149],[24.975597,37.810126],[24.978363,37.811469],[24.984874,37.815985],[24.94337,37.843329],[24.959158,37.87637],[24.963715,37.896796],[24.953868,37.905992],[24.875011,37.905992],[24.848399,37.914862],[24.840831,37.919013],[24.837576,37.925482],[24.830414,37.94774],[24.83074,37.952541],[24.834646,37.955797],[24.830089,37.96308],[24.820811,37.970364],[24.810557,37.973619],[24.800548,37.974311],[24.794688,37.977118],[24.792328,37.983344],[24.793712,37.994086],[24.779611383789067,38]],[[24.777677849808835,38],[24.757009,37.996568],[24.701915,37.972642],[24.693614,37.965766],[24.690115,37.956285],[24.692638,37.947089],[24.696544,37.940253],[24.695649,37.935533],[24.683849,37.932685],[24.695486,37.924628],[24.709321,37.906562],[24.718028,37.898586],[24.712169,37.884345],[24.716156,37.879096],[24.72462,37.881903],[24.7317,37.89175],[24.738536,37.89175],[24.753917,37.87641],[24.775727,37.86225],[24.7942,37.843817],[24.799978,37.815985],[24.81658,37.823879],[24.828136,37.817288],[24.844249,37.792426],[24.854991,37.781399],[24.865245,37.77383],[24.87672,37.769517],[24.8921,37.768215],[24.897472,37.761786],[24.916026,37.719794],[24.926931,37.71011],[24.949718,37.696112],[24.95753,37.686265],[24.963715,37.686265],[24.959646,37.702582],[24.95753,37.706732],[24.971202,37.718655],[24.985525,37.735989],[24.994395,37.754096],[24.99171,37.768215]]]}},{"type":"Feature","properties":{"featurecla":"Coastline","scalerank":5,"min_zoom":4},"geometry":{"type":"MultiLineString","coordinates":[[[23.408376,37.898586],[23.421397,37.892971],[23.452403,37.885403],[23.467052,37.884223],[23.481456,37.889716],[23.492035,37.900092],[23.501313,37.906073],[23.511974,37.898586],[23.51824,37.898586],[23.521739,37.913967],[23.543468,37.92886],[23.539317,37.939521],[23.573497,37.952541],[23.546153,37.952541],[23.545584,37.957587],[23.54713,37.958889],[23.540863,37.962348],[23.534923,37.968207],[23.532725,37.975084],[23.531912,37.980455],[23.536876,37.988023],[23.530528,37.994574],[23.51824,37.999091],[23.510700917600285,38]],[[23.482176895762713,38],[23.478201,37.998847],[23.47047,37.994086],[23.474864,37.989936],[23.474864,37.989407],[23.472667,37.98786],[23.47047,37.980455],[23.461599,37.985663],[23.451508,37.988267],[23.440766,37.988837],[23.429454,37.987942],[23.444184,37.979153],[23.457367,37.973619],[23.422048,37.960028],[23.433116,37.96015],[23.451834,37.954169],[23.46046,37.952541],[23.469249,37.955308],[23.476817,37.961127],[23.485606,37.966254],[23.497732,37.966864],[23.492035,37.956285],[23.4817,37.941718],[23.468516,37.932034],[23.439464,37.939602],[23.422862,37.93301],[23.408946,37.921942],[23.40211,37.912177],[23.40211,37.905992],[23.408376,37.898586]]]}},{"type":"Feature","properties":{"featurecla":"Coastline","scalerank":3,"min_zoom":0},"geometry":{"type":"MultiLineString","coordinates":[[[24.336128775295244,38],[24.338634,37.996731],[24.357188,37.980455],[24.371755,37.97191],[24.386892,37.970364],[24.40211,37.980455],[24.40211,37.987942],[24.386404,37.996527],[24.390170989077433,38]],[[24.455902962304883,38],[24.470958,37.980455],[24.472911,37.968411],[24.476899,37.96247],[24.488048,37.960028],[24.509288,37.962551],[24.531749,37.969184],[24.552094,37.978176],[24.566661,37.987942],[24.5731352409201,38]]]}},{"type":"Feature","properties":{"featurecla":"Coastline","scalerank":6,"min_zoom":6},"geometry":{"type":"LineString","coordinates":[[23.884288,36.843573],[23.87672,36.843695],[23.876964,36.836493],[23.884288,36.832343],[23.889008,36.834296],[23.887462,36.838609],[23.884288,36.843573]]}},{"type":"Feature","properties":{"featurecla":"Coastline","scalerank":6,"min_zoom":6},"geometry":{"type":"LineString","coordinates":[[23.459646,36.921373],[23.456065,36.927802],[23.449718,36.929145],[23.453136,36.921373],[23.452485,36.916449],[23.4546,36.915188],[23.454926,36.913275],[23.457774,36.90644],[23.463878,36.903998],[23.467296,36.906399],[23.464203,36.91706],[23.459646,36.921373]]}},{"type":"Feature","properties":{"featurecla":"Coastline","scalerank":6,"min_zoom":6},"geometry":{"type":"LineString","coordinates":[[27.565684,36.24494],[27.548676,36.244086],[27.533702,36.241889],[27.526541,36.240058],[27.517426,36.230902],[27.518891,36.216864],[27.531505,36.211737],[27.550548,36.215888],[27.568533,36.215155],[27.582856,36.212551],[27.602387,36.216946],[27.610118,36.216498],[27.614431,36.219672],[27.618663,36.228095],[27.618988,36.237942],[27.616466,36.242621],[27.565684,36.24494]]}},{"type":"Feature","properties":{"featurecla":"Coastline","scalerank":6,"min_zoom":6},"geometry":{"type":"LineString","coordinates":[[27.185802,36.615668],[27.166759,36.615058],[27.137218,36.600084],[27.12615,36.580064],[27.129731,36.569525],[27.140147,36.563218],[27.161388,36.56037],[27.174571,36.560533],[27.198009,36.568305],[27.206065,36.587104],[27.194672,36.60692],[27.185802,36.615668]]}},{"type":"Feature","properties":{"featurecla":"Coastline","scalerank":6,"min_zoom":5},"geometry":{"type":"LineString","coordinates":[[26.871837,37.134101],[26.869802,37.141018],[26.864268,37.153306],[26.854259,37.158515],[26.844086,37.162014],[26.846202,37.17121],[26.852875,37.181789],[26.849783,37.187323],[26.841075,37.189154],[26.834727,37.191067],[26.830903,37.192816],[26.826834,37.194241],[26.82309,37.193305],[26.817231,37.19481],[26.808279,37.200263],[26.800304,37.199286],[26.801036,37.192572],[26.798025,37.190579],[26.78419,37.191474],[26.772716,37.182685],[26.776215,37.169664],[26.788341,37.162055],[26.795095,37.155463],[26.806407,37.151679],[26.816905,37.146552],[26.81422,37.138129],[26.810395,37.129381],[26.817231,37.119859],[26.829763,37.11872],[26.843028,37.125149],[26.852306,37.124579],[26.848643,37.117865],[26.837576,37.112128],[26.837576,37.104722],[26.849946,37.098456],[26.861583,37.097317],[26.869884,37.098049],[26.875173,37.100084],[26.875499,37.103705],[26.879731,37.103827],[26.886892,37.105699],[26.886892,37.116604],[26.87794,37.128974],[26.871837,37.134101]]}},{"type":"Feature","properties":{"featurecla":"Coastline","scalerank":6,"min_zoom":6},"geometry":{"type":"LineString","coordinates":[[26.598806,37.355414],[26.59669,37.359198],[26.590343,37.364447],[26.580577,37.370103],[26.568614,37.374416],[26.556407,37.372056],[26.545095,37.373114],[26.536388,37.372707],[26.533702,37.360663],[26.535818,37.347073],[26.538829,37.338121],[26.537364,37.331488],[26.533865,37.325141],[26.528575,37.300727],[26.532725,37.291734],[26.54477,37.288398],[26.547374,37.283637],[26.546397,37.277167],[26.557302,37.271226],[26.567719,37.274644],[26.565196,37.308417],[26.553884,37.319892],[26.548839,37.326565],[26.554698,37.327135],[26.558442,37.329739],[26.559744,37.334377],[26.563731,37.341702],[26.572439,37.347154],[26.581309,37.346747],[26.584972,37.345608],[26.588715,37.344794],[26.59547,37.34162],[26.600841,37.337348],[26.60613,37.339545],[26.603689,37.349433],[26.598806,37.355414]]}},{"type":"Feature","properties":{"featurecla":"Coastline","scalerank":6,"min_zoom":6},"geometry":{"type":"LineString","coordinates":[[24.739431,37.613837],[24.741059,37.625922],[24.732921,37.632066],[24.716075,37.631049],[24.703868,37.624701],[24.694021,37.61518],[24.677908,37.609442],[24.659679,37.606879],[24.672374,37.600491],[24.71811,37.593573],[24.741222,37.595689],[24.737804,37.607856],[24.739431,37.613837]]}}]}